NORAD_CAT_ID,OBJECT_NAME,OBJECT_TYPE,EPOCH,MEAN_MOTION,ECCENTRICITY,INCLINATION,RA_OF_ASC_NODE,ARG_OF_PERICENTER,MEAN_ANOMALY,BSTAR,MEAN_MOTION_DOT,MEAN_MOTION_DDOT,TLE_LINE0,TLE_LINE1,TLE_LINE2,SEMIMAJOR_AXIS,PERIOD,APOGEE,PERIGEE,DECAYED
56811.0,STARLINK-6063,PAYLOAD,2023-10-12 01:00:20,15.69937017,0.0003641,69.9992,37.1811,267.3888,92.6891,4.225e-05,4.873e-05,0.0,0 STARLINK-6063,1 56811U 23078AW  23285.04190644  .00004873  00000-0  42250-4 0  9998,2 56811  69.9992  37.1811 0003641 267.3888  92.6891 15.69937017 21303,6737.214,91.723,361.532,356.626,0.0
56811.0,STARLINK-6063,PAYLOAD,2023-10-12 10:10:52,15.69915161,0.0003162,69.9996,36.1068,266.6634,93.42,2.507e-05,2.802e-05,0.0,0 STARLINK-6063,1 56811U 23078AW  23285.42421877  .00002802  00000-0  25070-4 0  9996,2 56811  69.9996  36.1068 0003162 266.6634  93.4200 15.69915161 21364,6737.277,91.725,361.272,357.011,0.0
56811.0,STARLINK-6063,PAYLOAD,2023-10-12 16:17:52,15.69925166,0.0002919,69.9999,35.3917,259.2519,100.8348,8.8936e-06,8.57e-06,0.0,0 STARLINK-6063,1 56811U 23078AW  23285.67908100  .00000857  00000-0  88936-5 0  9991,2 56811  69.9999  35.3917 0002919 259.2519 100.8348 15.69925166 21407,6737.248,91.724,361.08,357.146,0.0
56811.0,STARLINK-6063,PAYLOAD,2023-10-13 10:38:54,15.69922126,0.0002817,69.9999,33.2409,261.9516,98.136,1.8419e-05,2.002e-05,0.0,0 STARLINK-6063,1 56811U 23078AW  23286.44368353  .00002002  00000-0  18419-4 0  9999,2 56811  69.9999  33.2409 0002817 261.9516  98.1360 15.69922126 21264,6737.257,91.724,361.02,357.224,0.0
56811.0,STARLINK-6063,PAYLOAD,2023-10-13 16:45:54,15.69927653,0.0002698,70.0003,32.5249,262.5595,97.5294,2.6401e-05,2.963e-05,0.0,0 STARLINK-6063,1 56811U 23078AW  23286.69854825  .00002963  00000-0  26401-4 0  9996,2 56811  70.0003  32.5249 0002698 262.5595  97.5294 15.69927653 21560,6737.241,91.724,360.924,357.288,0.0
56811.0,STARLINK-6063,PAYLOAD,2023-10-14 09:35:11,15.69897695,0.0003066,70.0,30.5547,277.8575,82.2272,-4.1601e-05,-5.206e-05,0.0,0 STARLINK-6063,1 56811U 23078AW  23287.39944381 -.00005206  00000-0 -41601-4 0  9995,2 56811  70.0000  30.5547 0003066 277.8575  82.2272 15.69897695 21674,6737.327,91.726,361.257,357.126,0.0
56811.0,STARLINK-6063,PAYLOAD,2023-10-14 17:13:57,15.69909269,0.0002885,70.0009,29.6591,266.055,94.0316,-8.6362e-06,-1.25e-05,0.0,0 STARLINK-6063,1 56811U 23078AW  23287.71802488 -.00001250  00000-0 -86362-5 0  9991,2 56811  70.0009  29.6591 0002885 266.0550  94.0316 15.69909269 21729,6737.294,91.725,361.102,357.215,0.0
56811.0,STARLINK-6063,PAYLOAD,2023-10-15 10:03:12,15.6992886,0.0003494,69.9986,27.6882,272.4632,87.6164,7.4511e-06,6.83e-06,0.0,0 STARLINK-6063,1 56811U 23078AW  23288.41889912  .00000683  00000-0  74511-5 0  9996,2 56811  69.9986  27.6882 0003494 272.4632  87.6164 15.69928860 21839,6737.238,91.724,361.457,356.749,0.0
56811.0,STARLINK-6063,PAYLOAD,2023-10-15 14:38:28,15.6991984,0.0002895,70.0001,27.1515,268.8429,91.2434,-2.4582e-06,-5.08e-06,0.0,0 STARLINK-6063,1 56811U 23078AW  23288.61005433 -.00000508  00000-0 -24582-5 0  9997,2 56811  70.0001  27.1515 0002895 268.8429  91.2434 15.69919840 21609,6737.263,91.724,361.079,357.178,0.0
56811.0,STARLINK-6063,PAYLOAD,2023-10-15 16:10:13,15.69922714,0.000278,69.9982,26.9725,267.7908,92.297,3.0194e-06,1.51e-06,0.0,0 STARLINK-6063,1 56811U 23078AW  23288.67377227  .00000151  00000-0  30194-5 0  9994,2 56811  69.9982  26.9725 0002780 267.7908  92.2970 15.69922714 21876,6737.255,91.724,360.993,357.247,0.0
56811.0,STARLINK-6063,PAYLOAD,2023-10-15 23:48:58,15.69929274,0.0002837,69.9988,26.0758,269.2947,90.7924,1.4195e-05,1.495e-05,0.0,0 STARLINK-6063,1 56811U 23078AW  23288.99234901  .00001495  00000-0  14195-4 0  9994,2 56811  69.9988  26.0758 0002837 269.2947  90.7924 15.69929274 21928,6737.236,91.724,361.013,357.19,0.0
56811.0,STARLINK-6063,PAYLOAD,2023-10-16 07:27:45,15.69908364,0.0002381,69.9993,25.1809,262.7106,97.382,4.4583e-05,5.148e-05,0.0,0 STARLINK-6063,1 56811U 23078AW  23289.31093986  .00005148  00000-0  44583-4 0  9990,2 56811  69.9993  25.1809 0002381 262.7106  97.3820 15.69908364 21970,6737.296,91.725,360.765,357.557,0.0
56811.0,STARLINK-6063,PAYLOAD,2023-10-16 08:59:30,15.69908856,0.0002792,69.9991,25.0018,273.5054,86.5822,4.0478e-05,4.654e-05,0.0,0 STARLINK-6063,1 56811U 23078AW  23289.37465783  .00004654  00000-0  40478-4 0  9994,2 56811  69.9991  25.0018 0002792 273.5054  86.5822 15.69908856 21728,6737.295,91.725,361.041,357.279,0.0
56811.0,STARLINK-6063,PAYLOAD,2023-10-16 16:38:16,15.6990424,0.0002698,69.9995,24.1057,268.5809,91.5077,3.4367e-05,3.918e-05,0.0,0 STARLINK-6063,1 56811U 23078AW  23289.69324745  .00003918  00000-0  34367-4 0  9993,2 56811  69.9995  24.1057 0002698 268.5809  91.5077 15.69904240 22038,6737.308,91.725,360.991,357.355,0.0
56811.0,STARLINK-6063,PAYLOAD,2023-10-17 09:27:32,15.69924286,0.0003637,69.9972,22.1355,282.1327,77.9461,1.201e-05,1.231e-05,0.0,0 STARLINK-6063,1 56811U 23078AW  23290.39412119  .00001231  00000-0  12010-4 0  9992,2 56811  69.9972  22.1355 0003637 282.1327  77.9461 15.69924286 22142,6737.251,91.724,361.566,356.665,0.0
56811.0,STARLINK-6063,PAYLOAD,2023-10-17 12:31:02,15.69921921,0.0003477,69.9974,21.7766,280.9767,79.1038,1.1002e-05,1.11e-05,0.0,0 STARLINK-6063,1 56811U 23078AW  23290.52155620  .00001110  00000-0  11002-4 0  9994,2 56811  69.9974  21.7766 0003477 280.9767  79.1038 15.69921921 21901,6737.257,91.724,361.465,356.78,0.0
56811.0,STARLINK-6063,PAYLOAD,2023-10-17 23:13:17,15.69928755,0.000316,69.9976,20.5223,273.8691,86.2143,6.5366e-06,5.73e-06,0.0,0 STARLINK-6063,1 56811U 23078AW  23290.96756915  .00000573  00000-0  65366-5 0  9991,2 56811  69.9976  20.5223 0003160 273.8691  86.2143 15.69928755 21979,6737.238,91.724,361.232,356.974,0.0
56811.0,STARLINK-6063,PAYLOAD,2023-10-18 16:02:34,15.69925474,0.0003282,69.9972,18.5521,277.0062,83.076,-4.9191e-07,-2.72e-06,0.0,0 STARLINK-6063,1 56811U 23078AW  23291.66845664 -.00000272  00000-0 -49191-6 0  9996,2 56811  69.9972  18.5521 0003282 277.0062  83.0760 15.69925474 22343,6737.247,91.724,361.323,356.901,0.0
56811.0,STARLINK-6063,PAYLOAD,2023-10-18 23:41:19,15.69937953,0.0003088,69.9971,17.6562,272.8855,87.1987,1.347e-05,1.408e-05,0.0,0 STARLINK-6063,1 56811U 23078AW  23291.98702895  .00001408  00000-0  13470-4 0  9998,2 56811  69.9971  17.6562 0003088 272.8855  87.1987 15.69937953 22390,6737.212,91.723,361.157,356.996,0.0
56811.0,STARLINK-6063,PAYLOAD,2023-10-19 08:51:50,15.69923167,0.0003191,69.9963,16.5796,274.5835,85.4996,7.6224e-06,7.04e-06,0.0,0 STARLINK-6063,1 56811U 23078AW  23292.36933701  .00000704  00000-0  76224-5 0  9998,2 56811  69.9963  16.5796 0003191 274.5835  85.4996 15.69923167 22450,6737.254,91.724,361.269,356.969,0.0
56811.0,STARLINK-6063,PAYLOAD,2023-10-20 09:19:53,15.69911645,0.0003246,69.9962,13.714,274.4056,85.6769,-3.7556e-06,-6.64e-06,0.0,0 STARLINK-6063,1 56811U 23078AW  23293.38881648 -.00000664  00000-0 -37556-5 0  9995,2 56811  69.9962  13.7140 0003246 274.4056  85.6769 15.69911645 22612,6737.287,91.725,361.339,356.965,0.0
56811.0,STARLINK-6063,PAYLOAD,2023-10-21 08:16:09,15.69931955,0.0002904,69.9985,11.029,267.655,92.4313,7.9819e-06,7.48e-06,0.0,0 STARLINK-6063,1 56811U 23078AW  23294.34454879  .00000748  00000-0  79819-5 0  9993,2 56811  69.9985  11.0290 0002904 267.6550  92.4313 15.69931955 22760,6737.229,91.724,361.05,357.137,0.0
56811.0,STARLINK-6063,PAYLOAD,2023-10-22 11:47:42,15.69926117,0.0002359,69.9984,7.8017,263.8483,96.2444,-1.0919e-05,-1.525e-05,0.0,0 STARLINK-6063,1 56811U 23078AW  23295.49146477 -.00001525  00000-0 -10919-4 0  9993,2 56811  69.9984   7.8017 0002359 263.8483  96.2444 15.69926117 22947,6737.245,91.724,360.7,357.521,0.0
56811.0,STARLINK-6063,PAYLOAD,2023-10-22 13:19:27,15.6992169,0.0002612,69.998,7.6229,266.379,93.7107,-1.1764e-05,-1.626e-05,0.0,0 STARLINK-6063,1 56811U 23078AW  23295.55518465 -.00001626  00000-0 -11764-4 0  9991,2 56811  69.9980   7.6229 0002612 266.3790  93.7107 15.69921690 22698,6737.258,91.724,360.883,357.363,0.0
56811.0,STARLINK-6063,PAYLOAD,2023-10-22 22:29:57,15.69939524,0.0003157,69.9975,6.5492,266.1509,93.9326,1.4286e-05,1.506e-05,0.0,0 STARLINK-6063,1 56811U 23078AW  23295.93746655  .00001506  00000-0  14286-4 0  9994,2 56811  69.9975   6.5492 0003157 266.1509  93.9326 15.69939524 22750,6737.207,91.723,361.199,356.945,0.0
56811.0,STARLINK-6063,PAYLOAD,2023-10-23 07:40:29,15.69918515,0.0003157,69.9972,5.4731,280.2008,79.8831,-7.8904e-06,-1.161e-05,0.0,0 STARLINK-6063,1 56811U 23078AW  23296.31978434 -.00001161  00000-0 -78904-5 0  9996,2 56811  69.9972   5.4731 0003157 280.2008  79.8831 15.69918515 23079,6737.267,91.725,361.259,357.005,0.0
56811.0,STARLINK-6063,PAYLOAD,2023-10-23 12:15:44,15.69914939,0.000222,69.9987,4.9367,261.8872,98.2071,-9.3207e-06,-1.332e-05,0.0,0 STARLINK-6063,1 56811U 23078AW  23296.51093695 -.00001332  00000-0 -93207-5 0  9998,2 56811  69.9987   4.9367 0002220 261.8872  98.2071 15.69914939 22849,6737.277,91.725,360.638,357.647,0.0
56811.0,STARLINK-6063,PAYLOAD,2023-10-24 05:05:00,15.69921409,0.000197,69.9991,2.9662,271.7514,88.3456,3.0812e-05,3.493e-05,0.0,0 STARLINK-6063,1 56811U 23078AW  23297.21181054  .00003493  00000-0  30812-4 0  9993,2 56811  69.9991   2.9662 0001970 271.7514  88.3456 15.69921409 23213,6737.259,91.724,360.451,357.797,0.0
56811.0,STARLINK-6063,PAYLOAD,2023-10-24 11:12:01,15.6991384,0.0002198,69.999,2.249,264.6576,95.4369,2.3507e-05,2.614e-05,0.0,0 STARLINK-6063,1 56811U 23078AW  23297.46668427  .00002614  00000-0  23507-4 0  9991,2 56811  69.9990   2.2490 0002198 264.6576  95.4369 15.69913840 23252,6737.281,91.725,360.626,357.665,0.0
56811.0,STARLINK-6063,PAYLOAD,2023-10-25 13:11:48,15.69908754,0.0002124,69.9996,359.2046,226.6043,133.4976,1.277e-05,1.323e-05,0.0,0 STARLINK-6063,1 56811U 23078AW  23298.54987242  .00001323  00000-0  12770-4 0  9996,2 56811  69.9996 359.2046 0002124 226.6043 133.4976 15.69908754 23420,6737.295,91.725,360.591,357.729,0.0
